OBJECT_NAME,OBJECT_ID,EPOCH,MEAN_MOTION,ECCENTRICITY,INCLINATION,RA_OF_ASC_NODE,ARG_OF_PERICENTER,MEAN_ANOMALY,EPHEMERIS_TYPE,CLASSIFICATION_TYPE,NORAD_CAT_ID,ELEMENT_SET_NO,REV_AT_EPOCH,BSTAR,MEAN_MOTION_DOT,MEAN_MOTION_DDOT
HAIYANG-2D,2021-043A,2026-06-15T06:26:14.371296,13.83376352,.0011412,65.9993,309.4766,269.3063,90.6698,0,U,48621,999,25628,.42706307E-4,-.34E-6,0
2021-050D,2021-050D,2026-06-15T07:10:59.632320,15.23314473,.00039379,97.3343,242.3775,270.9705,89.1081,0,U,48843,999,27867,.21023945E-3,.4921E-4,0
TYVAK-0173,2021-059P,2026-06-15T04:07:40.664352,14.81884771,.00102863,96.0085,243.0295,45.7955,314.4106,0,U,48892,999,26794,.19427842E-3,.1506E-4,0
MANDRAKE 2 ABLE,2021-059AE,2026-06-15T01:12:27.719712,15.54915419,.00045819,97.7024,355.6718,13.5147,346.6228,0,U,48907,999,27679,.29295185E-3,.19499E-3,0
MANDRAKE 2 BAKER,2021-059AF,2026-06-15T01:15:26.242848,15.59467800,.00030842,97.6995,358.5307,15.8588,344.2764,0,U,48908,999,27696,.31126997E-3,.24565E-3,0
PACE-1,2021-059AG,2026-06-15T01:31:51.758400,15.79521335,.00009452,97.6753,3.9663,277.9966,82.1193,0,U,48909,999,27746,.46594402E-3,.84845E-3,0
YAM-3,2021-059AN,2026-06-15T06:11:23.225280,15.48519051,.00051276,97.6985,353.0868,17.2720,342.8704,0,U,48915,999,27669,.18905096E-3,.9964E-4,0
FARADAY_PHOENIX,2021-059AX,2026-06-14T19:21:35.894016,15.77908031,.00028223,97.6806,3.5716,309.9623,50.1395,0,U,48924,999,27728,.7357315E-3,.12533E-2,0
DEMO8 (TENZING),2021-059CA,2026-06-15T01:16:46.722720,15.54924640,.00063828,97.7016,359.3104,4.1177,356.0127,0,U,48951,999,27697,.2696143E-3,.17947E-3,0
NAPA-2,2021-059CN,2026-06-14T07:37:13.255392,15.98951733,.00031023,97.6659,4.0943,239.6762,120.4209,0,U,48963,999,27735,.72326893E-3,.344921E-2,.51611315E-4
FENGYUN 3E,2021-062A,2026-06-15T05:29:13.000416,14.19903507,.00028503,98.7486,169.6583,88.9459,271.2044,0,U,49008,999,25630,-.30753678E-4,-.109E-5,0
ISS (NAUKA),2021-066A,2026-06-15T04:33:23.274144,15.49238068,.00048346,51.6338,309.9786,187.9159,172.1754,0,U,49044,999,57114,.14682976E-3,.7715E-4,0
STARLINK-3100,2021-082Q,2026-06-15T02:30:05.931648,14.98333990,.00029996,70.0000,48.8314,270.0039,90.0776,0,U,49144,999,26057,.15217553E-4,.89E-6,0
CUTE,2021-088D,2026-06-15T05:45:47.459232,15.92661724,.00076565,97.4149,265.3464,230.3432,129.7167,0,U,49263,999,26224,.39922071E-3,.135675E-2,.9041697E-5
2021-091B,2021-091B,2026-06-15T06:44:27.680352,15.18541992,.00147808,97.4465,353.8846,51.4984,308.7573,0,U,49316,999,25869,.56540892E-4,.1102E-4,0
SDGSAT 1,2021-100A,2026-06-15T07:43:09.856704,15.19922164,.00065447,97.2638,213.3404,307.8534,52.2109,0,U,49387,999,25563,.1281238E-3,.2688E-4,0
TEIKYOSAT-4 (OORURI),2021-102B,2026-06-15T01:34:36.581088,15.09502057,.00106087,97.3671,195.6317,305.1460,54.8775,0,U,49396,999,25240,.93508713E-4,.1439E-4,0
Z-SAT,2021-102E,2026-06-15T08:27:43.597152,15.18255045,.00148484,97.3327,201.7306,252.0129,107.9487,0,U,49399,999,25316,.20450201E-3,.4133E-4,0
HIBARI,2021-102F,2026-06-15T02:40:29.578944,15.31695082,.00111722,97.3237,212.0381,199.0928,160.9897,0,U,49400,999,25387,.32426654E-3,.9868E-4,0
KOSEN-1,2021-102H,2026-06-15T02:38:21.410592,15.26811594,.00129761,97.3183,208.3073,208.0787,151.9754,0,U,49402,999,25370,.26025098E-3,.6801E-4,0
GLOBAL-14,2021-106A,2026-06-15T02:08:30.377472,15.50513646,.00161039,42.0047,303.5470,4.2376,355.8602,0,U,49469,999,25780,.41404721E-3,.24132E-3,0
GAOFEN-3 02,2021-109A,2026-06-15T07:32:49.516800,14.42217353,.00030691,98.4082,174.4376,22.1316,338.0006,0,U,49495,999,24004,.55941725E-4,.141E-5,0
GLOBAL-12,2021-115BA,2026-06-15T06:32:00.689280,15.53494495,.00032085,53.1963,53.7485,64.8968,295.2376,0,U,49772,999,25560,.44230384E-3,.28202E-3,0
GLOBAL-13,2021-115BB,2026-06-14T23:40:27.988320,15.45969997,.00039081,53.1985,65.0498,104.7375,255.4067,0,U,49773,999,25542,.39633876E-3,.19246E-3,0
GLOBAL-17,2021-120A,2026-06-14T23:10:11.156160,15.52154913,.00154557,41.9959,62.5329,242.6217,117.3055,0,U,49949,999,25455,.41711516E-3,.25798E-3,0
GLOBAL-16,2021-120B,2026-06-14T23:25:14.435328,15.50087879,.00133595,41.9956,66.1597,234.7507,125.2087,0,U,49950,999,25450,.4162525E-3,.23856E-3,0
XW-3 (CAS-9),2021-131B,2026-06-15T07:39:32.894208,14.41356470,.0005349,98.4984,258.7187,100.9006,259.2785,0,U,50466,999,23484,.19054568E-3,.573E-5,0
ION SCV-004,2022-002K,2026-06-15T06:33:26.034336,15.30435327,.00073924,97.2836,223.9676,14.6373,345.5081,0,U,50993,999,24500,.15080367E-3,.4366E-4,0
ETV-A1,2022-002CE,2026-06-15T06:14:33.625824,15.40647715,.00047341,97.2882,232.5707,11.0006,349.1343,0,U,51060,999,24554,.2289555E-3,.9251E-4,0
BRO-5,2022-002CF,2026-06-15T05:54:30.055680,15.47270380,.00038137,97.3001,239.8978,340.1972,19.9130,0,U,51061,999,24595,.48319549E-3,.2458E-3,0
