HAIYANG-2D              
1 48621U 21043A   26166.26822189 -.00000034  00000+0  42706-4 0  9990
2 48621  65.9993 309.4766 0011412 269.3063  90.6698 13.83376352256289
2021-050D               
1 48843U 21050D   26166.29930130  .00004921  00000+0  21024-3 0  9990
2 48843  97.3343 242.3775 0003937 270.9705  89.1081 15.23314473278670
TYVAK-0173              
1 48892U 21059P   26166.17199843  .00001506  00000+0  19428-3 0  9999
2 48892  96.0085 243.0295 0010286  45.7955 314.4106 14.81884771267944
MANDRAKE 2 ABLE         
1 48907U 21059AE  26166.05032083  .00019499  00000+0  29295-3 0  9998
2 48907  97.7024 355.6718 0004581  13.5147 346.6228 15.54915419276799
MANDRAKE 2 BAKER        
1 48908U 21059AF  26166.05238707  .00024565  00000+0  31127-3 0  9997
2 48908  97.6995 358.5307 0003084  15.8588 344.2764 15.59467800276962
PACE-1                  
1 48909U 21059AG  26166.06379350  .00084845  00000+0  46594-3 0  9990
2 48909  97.6753   3.9663 0000945 277.9966  82.1193 15.79521335277461
YAM-3                   
1 48915U 21059AN  26166.25790770  .00009964  00000+0  18905-3 0  9995
2 48915  97.6985 353.0868 0005127  17.2720 342.8704 15.48519051276697
FARADAY_PHOENIX         
1 48924U 21059AX  26165.80666544  .00125330  00000+0  73573-3 0  9994
2 48924  97.6806   3.5716 0002822 309.9623  50.1395 15.77908031277283
DEMO8 (TENZING)         
1 48951U 21059CA  26166.05331855  .00017947  00000+0  26961-3 0  9999
2 48951  97.7016 359.3104 0006382   4.1177 356.0127 15.54924640276978
NAPA-2                  
1 48963U 21059CN  26165.31751453  .00344921  51611-4  72327-3 0  9991
2 48963  97.6659   4.0943 0003102 239.6762 120.4209 15.98951733277358
FENGYUN 3E              
1 49008U 21062A   26166.22862269 -.00000109  00000+0 -30754-4 0  9994
2 49008  98.7486 169.6583 0002850  88.9459 271.2044 14.19903507256306
ISS (NAUKA)             
1 49044U 21066A   26166.18985271  .00007715  00000+0  14683-3 0  9992
2 49044  51.6338 309.9786 0004834 187.9159 172.1754 15.49238068571141
STARLINK-3100           
1 49144U 21082Q   26166.10423532  .00000089  00000+0  15218-4 0  9993
2 49144  70.0000  48.8314 0002999 270.0039  90.0776 14.98333990260577
CUTE                    
1 49263U 21088D   26166.24013263  .00135675  90417-5  39922-3 0  9996
2 49263  97.4149 265.3464 0007656 230.3432 129.7167 15.92661724262243
2021-091B               
1 49316U 21091B   26166.28087593  .00001102  00000+0  56541-4 0  9997
2 49316  97.4465 353.8846 0014780  51.4984 308.7573 15.18541992258696
SDGSAT 1                
1 49387U 21100A   26166.32164186  .00002688  00000+0  12812-3 0  9997
2 49387  97.2638 213.3404 0006544 307.8534  52.2109 15.19922164255634
TEIKYOSAT-4 (OORURI)    
1 49396U 21102B   26166.06570117  .00001439  00000+0  93509-4 0  9991
2 49396  97.3671 195.6317 0010608 305.1460  54.8775 15.09502057252405
Z-SAT                   
1 49399U 21102E   26166.35258793  .00004133  00000+0  20450-3 0  9997
2 49399  97.3327 201.7306 0014848 252.0129 107.9487 15.18255045253161
HIBARI                  
1 49400U 21102F   26166.11145346  .00009868  00000+0  32427-3 0  9990
2 49400  97.3237 212.0381 0011172 199.0928 160.9897 15.31695082253872
KOSEN-1                 
1 49402U 21102H   26166.10997003  .00006801  00000+0  26025-3 0  9997
2 49402  97.3183 208.3073 0012976 208.0787 151.9754 15.26811594253703
GLOBAL-14               
1 49469U 21106A   26166.08924048  .00024132  00000+0  41405-3 0  9996
2 49469  42.0047 303.5470 0016103   4.2376 355.8602 15.50513646257803
GAOFEN-3 02             
1 49495U 21109A   26166.31446200  .00000141  00000+0  55942-4 0  9999
2 49495  98.4082 174.4376 0003069  22.1316 338.0006 14.42217353240041
GLOBAL-12               
1 49772U 21115BA  26166.27223020  .00028202  00000+0  44230-3 0  9997
2 49772  53.1963  53.7485 0003208  64.8968 295.2376 15.53494495255605
GLOBAL-13               
1 49773U 21115BB  26165.98643505  .00019246  00000+0  39634-3 0  9999
2 49773  53.1985  65.0498 0003908 104.7375 255.4067 15.45969997255423
GLOBAL-17               
1 49949U 21120A   26165.96540690  .00025798  00000+0  41712-3 0  9998
2 49949  41.9959  62.5329 0015455 242.6217 117.3055 15.52154913254554
GLOBAL-16               
1 49950U 21120B   26165.97586152  .00023856  00000+0  41625-3 0  9990
2 49950  41.9956  66.1597 0013359 234.7507 125.2087 15.50087879254507
XW-3 (CAS-9)            
1 50466U 21131B   26166.31913072  .00000573  00000+0  19055-3 0  9993
2 50466  98.4984 258.7187 0005349 100.9006 259.2785 14.41356470234844
ION SCV-004             
1 50993U 22002K   26166.27321799  .00004366  00000+0  15080-3 0  9998
2 50993  97.2836 223.9676 0007392  14.6373 345.5081 15.30435327245003
ETV-A1                  
1 51060U 22002CE  26166.26011141  .00009251  00000+0  22896-3 0  9991
2 51060  97.2882 232.5707 0004734  11.0006 349.1343 15.40647715245549
BRO-5                   
1 51061U 22002CF  26166.24618120  .00024580  00000+0  48320-3 0  9992
2 51061  97.3001 239.8978 0003813 340.1972  19.9130 15.47270380245957
